{
  "type": "FeatureCollection",
  "features": [
    {
      "type": "Feature",
      "properties": {
        "norad_id": 44333,
        "name": "AT&T T-16",
        "group": "intelsat",
        "lat": 0.027697242885285318,
        "lon": 124.23166311836474,
        "alt_km": 35784.54992228923,
        "timestamp": "2025-12-09T09:46:47.315110+00:00",
        "meta_object_name": "AT&T T-16",
        "meta_object_id": "2019-034A",
        "meta_epoch": "2025-12-09T04:51:28.033056",
        "meta_mean_motion": 1.00269398,
        "meta_eccentricity": 6.16e-05,
        "meta_inclination": 0.023,
        "meta_ra_of_asc_node": 59.8704,
        "meta_arg_of_pericenter": 96.056,
        "meta_mean_anomaly": 254.2817,
        "meta_ephemeris_type": 0,
        "meta_classification_type": "U",
        "meta_norad_cat_id": 44333,
        "meta_element_set_no": 999,
        "meta_rev_at_epoch": 2372,
        "meta_bstar": 0,
        "meta_mean_motion_dot": -1.13e-06,
        "meta_mean_motion_ddot": 0,
        "tle_line1": "1 44333U 19034A   25343.20240779 -.00000113  00000+0  00000+0 0  9996",
        "tle_line2": "2 44333   0.0230  59.8704 0000616  96.0560 254.2817  1.00269398 23727"
      },
      "geometry": {
        "type": "Point",
        "coordinates": [
          124.23166311836474,
          0.027697242885285318
        ]
      }
    },
    {
      "type": "Feature",
      "properties": {
        "norad_id": 44476,
        "name": "INTELSAT 39 (IS-39)",
        "group": "intelsat",
        "lat": -0.02027864116912292,
        "lon": -72.94893256963815,
        "alt_km": 35789.51212019397,
        "timestamp": "2025-12-09T09:46:47.315121+00:00",
        "meta_object_name": "INTELSAT 39 (IS-39)",
        "meta_object_id": "2019-049B",
        "meta_epoch": "2025-12-09T03:35:43.926144",
        "meta_mean_motion": 1.00270125,
        "meta_eccentricity": 0.0001017,
        "meta_inclination": 0.0147,
        "meta_ra_of_asc_node": 314.4755,
        "meta_arg_of_pericenter": 198.5375,
        "meta_mean_anomaly": 41.0167,
        "meta_ephemeris_type": 0,
        "meta_classification_type": "U",
        "meta_norad_cat_id": 44476,
        "meta_element_set_no": 999,
        "meta_rev_at_epoch": 2322,
        "meta_bstar": 0,
        "meta_mean_motion_dot": 3.6e-07,
        "meta_mean_motion_ddot": 0,
        "tle_line1": "1 44476U 19049B   25343.14981396  .00000036  00000+0  00000+0 0  9993",
        "tle_line2": "2 44476   0.0147 314.4755 0001017 198.5375  41.0167  1.00270125 23221"
      },
      "geometry": {
        "type": "Point",
        "coordinates": [
          -72.94893256963815,
          -0.02027864116912292
        ]
      }
    },
    {
      "type": "Feature",
      "properties": {
        "norad_id": 46114,
        "name": "GALAXY 30 (G-30)",
        "group": "intelsat",
        "lat": 0.03576777286663431,
        "lon": 100.07721185189934,
        "alt_km": 35795.522307501065,
        "timestamp": "2025-12-09T09:46:47.315133+00:00",
        "meta_object_name": "GALAXY 30 (G-30)",
        "meta_object_id": "2020-056C",
        "meta_epoch": "2025-12-09T02:50:38.725728",
        "meta_mean_motion": 1.00271328,
        "meta_eccentricity": 0.0002397,
        "meta_inclination": 0.0174,
        "meta_ra_of_asc_node": 357.6559,
        "meta_arg_of_pericenter": 259.2548,
        "meta_mean_anomaly": 98.8607,
        "meta_ephemeris_type": 0,
        "meta_classification_type": "U",
        "meta_norad_cat_id": 46114,
        "meta_element_set_no": 999,
        "meta_rev_at_epoch": 1938,
        "meta_bstar": 0,
        "meta_mean_motion_dot": 3.9e-07,
        "meta_mean_motion_ddot": 0,
        "tle_line1": "1 46114U 20056C   25343.11850377  .00000039  00000+0  00000+0 0  9998",
        "tle_line2": "2 46114   0.0174 357.6559 0002397 259.2548  98.8607  1.00271328 19389"
      },
      "geometry": {
        "type": "Point",
        "coordinates": [
          100.07721185189934,
          0.03576777286663431
        ]
      }
    },
    {
      "type": "Feature",
      "properties": {
        "norad_id": 54026,
        "name": "GALAXY 33 (G-33)",
        "group": "intelsat",
        "lat": 0.0219924262018401,
        "lon": 92.08519592431081,
        "alt_km": 35794.88550233586,
        "timestamp": "2025-12-09T09:46:47.315145+00:00",
        "meta_object_name": "GALAXY 33 (G-33)",
        "meta_object_id": "2022-128A",
        "meta_epoch": "2025-12-08T14:41:01.040640",
        "meta_mean_motion": 1.00271783,
        "meta_eccentricity": 0.00022673,
        "meta_inclination": 0.0159,
        "meta_ra_of_asc_node": 302.3575,
        "meta_arg_of_pericenter": 307.2936,
        "meta_mean_anomaly": 275.2199,
        "meta_ephemeris_type": 0,
        "meta_classification_type": "U",
        "meta_norad_cat_id": 54026,
        "meta_element_set_no": 999,
        "meta_rev_at_epoch": 1183,
        "meta_bstar": 0,
        "meta_mean_motion_dot": 8.1e-07,
        "meta_mean_motion_ddot": 0,
        "tle_line1": "1 54026U 22128A   25342.61181760  .00000081  00000+0  00000+0 0  9995",
        "tle_line2": "2 54026   0.0159 302.3575 0002267 307.2936 275.2199  1.00271783 11833"
      },
      "geometry": {
        "type": "Point",
        "coordinates": [
          92.08519592431081,
          0.0219924262018401
        ]
      }
    },
    {
      "type": "Feature",
      "properties": {
        "norad_id": 54027,
        "name": "GALAXY 34 (G-34)",
        "group": "intelsat",
        "lat": 0.03382806713480651,
        "lon": 96.1483534152775,
        "alt_km": 35791.17537426951,
        "timestamp": "2025-12-09T09:46:47.315157+00:00",
        "meta_object_name": "GALAXY 34 (G-34)",
        "meta_object_id": "2022-128B",
        "meta_epoch": "2025-12-08T12:04:59.032992",
        "meta_mean_motion": 1.00270185,
        "meta_eccentricity": 0.00012919,
        "meta_inclination": 0.0269,
        "meta_ra_of_asc_node": 317.8338,
        "meta_arg_of_pericenter": 287.9468,
        "meta_mean_anomaly": 244.0411,
        "meta_ephemeris_type": 0,
        "meta_classification_type": "U",
        "meta_norad_cat_id": 54027,
        "meta_element_set_no": 999,
        "meta_rev_at_epoch": 1200,
        "meta_bstar": 0,
        "meta_mean_motion_dot": 0,
        "meta_mean_motion_ddot": 0,
        "tle_line1": "1 54027U 22128B   25342.50346103  .00000000  00000+0  00000+0 0  9999",
        "tle_line2": "2 54027   0.0269 317.8338 0001291 287.9468 244.0411  1.00270185 12000"
      },
      "geometry": {
        "type": "Point",
        "coordinates": [
          96.1483534152775,
          0.03382806713480651
        ]
      }
    },
    {
      "type": "Feature",
      "properties": {
        "norad_id": 54243,
        "name": "GALAXY 31 (G-31)",
        "group": "intelsat",
        "lat": 0.005578725776461344,
        "lon": 104.09050346960137,
        "alt_km": 35793.934598916654,
        "timestamp": "2025-12-09T09:46:47.315169+00:00",
        "meta_object_name": "GALAXY 31 (G-31)",
        "meta_object_id": "2022-153A",
        "meta_epoch": "2025-12-08T21:35:10.619808",
        "meta_mean_motion": 1.00271699,
        "meta_eccentricity": 0.00019185,
        "meta_inclination": 0.0205,
        "meta_ra_of_asc_node": 257.1315,
        "meta_arg_of_pericenter": 12.3567,
        "meta_mean_anomaly": 11.2077,
        "meta_ephemeris_type": 0,
        "meta_classification_type": "U",
        "meta_norad_cat_id": 54243,
        "meta_element_set_no": 999,
        "meta_rev_at_epoch": 522,
        "meta_bstar": 0,
        "meta_mean_motion_dot": 1.5e-07,
        "meta_mean_motion_ddot": 0,
        "tle_line1": "1 54243U 22153A   25342.89942847  .00000015  00000+0  00000+0 0  9992",
        "tle_line2": "2 54243   0.0205 257.1315 0001918  12.3567  11.2077  1.00271699  5226"
      },
      "geometry": {
        "type": "Point",
        "coordinates": [
          104.09050346960137,
          0.005578725776461344
        ]
      }
    },
    {
      "type": "Feature",
      "properties": {
        "norad_id": 54244,
        "name": "GALAXY 32 (G-32)",
        "group": "intelsat",
        "lat": 0.01374297042013807,
        "lon": 134.085772773833,
        "alt_km": 35797.813213864945,
        "timestamp": "2025-12-09T09:46:47.315181+00:00",
        "meta_object_name": "GALAXY 32 (G-32)",
        "meta_object_id": "2022-153B",
        "meta_epoch": "2025-12-08T12:27:22.096800",
        "meta_mean_motion": 1.00270602,
        "meta_eccentricity": 0.00027139,
        "meta_inclination": 0.0093,
        "meta_ra_of_asc_node": 341.4541,
        "meta_arg_of_pericenter": 326.1977,
        "meta_mean_anomaly": 225.7141,
        "meta_ephemeris_type": 0,
        "meta_classification_type": "U",
        "meta_norad_cat_id": 54244,
        "meta_element_set_no": 999,
        "meta_rev_at_epoch": 1123,
        "meta_bstar": 0,
        "meta_mean_motion_dot": -1.72e-06,
        "meta_mean_motion_ddot": 0,
        "tle_line1": "1 54244U 22153B   25342.51900575 -.00000172  00000+0  00000+0 0  9999",
        "tle_line2": "2 54244   0.0093 341.4541 0002713 326.1977 225.7141  1.00270602 11230"
      },
      "geometry": {
        "type": "Point",
        "coordinates": [
          134.085772773833,
          0.01374297042013807
        ]
      }
    }
  ]
}